[{"OBJECT_NAME":"TEVEL2-1","OBJECT_ID":"2025-052H","EPOCH":"2026-03-09T15:32:51.927072","MEAN_MOTION":15.30341923,"ECCENTRICITY":0.0004767,"INCLINATION":97.3991,"RA_OF_ASC_NODE":324.7682,"ARG_OF_PERICENTER":104.8919,"MEAN_ANOMALY":255.2849,"EPHEMERIS_TYPE":0,"CLASSIFICATION_TYPE":"U","NORAD_CAT_ID":63217,"ELEMENT_SET_NO":999,"REV_AT_EPOCH":5485,"BSTAR":0.000706,"MEAN_MOTION_DOT":0.00020683,"MEAN_MOTION_DDOT":0},{"OBJECT_NAME":"STARLINK-34850","OBJECT_ID":"2025-195C","EPOCH":"2026-03-09T17:08:09.142080","MEAN_MOTION":15.30232482,"ECCENTRICITY":0.00010484,"INCLINATION":53.1596,"RA_OF_ASC_NODE":258.3347,"ARG_OF_PERICENTER":68.169,"MEAN_ANOMALY":291.9422,"EPHEMERIS_TYPE":0,"CLASSIFICATION_TYPE":"U","NORAD_CAT_ID":65460,"ELEMENT_SET_NO":999,"REV_AT_EPOCH":2999,"BSTAR":0.0009431071,"MEAN_MOTION_DOT":0.00027705,"MEAN_MOTION_DDOT":0}]
